AQUA                    
1 27424U 02022A   26093.34188140  .00001685  00000+0  34565-3 0  9999
2 27424  98.4217  61.1638 0001348 115.7890  45.5803 14.62037672272334
CZ-4B R/B               
1 27432U 02024C   26093.12055850  .00000082  00000+0  65336-4 0  9998
2 27432  98.8784 146.3983 0049298 314.4707  99.4173 14.14552228232695
MIDORI II (ADEOS-II)    
1 27597U 02056A   26093.30520735  .00000527  00000+0  22472-3 0  9991
2 27597  98.7813  51.9596 0000451  21.2265 338.8935 14.29305211213813
H-2A R/B                
1 27601U 02056E   26093.12324662  .00000497  00000+0  18829-3 0  9995
2 27601  98.3247  52.5650 0071433  88.7893 284.0043 14.33778730217616
CZ-4B R/B               
1 28059U 03049C   26093.00226813  .00000573  00000+0  14265-3 0  9997
2 28059  98.6896  88.8649 0048600 156.2598 204.0855 14.55043337190132
CZ-2C R/B               
1 28222U 04012C   26093.14640236  .00085576  00000+0  77609-3 0  9991
2 28222  97.7169 160.8052 0013599 213.4051 146.6352 15.67640025208106
SL-16 R/B               
1 28353U 04021B   26093.27716072  .00000392  00000+0  22860-3 0  9994
2 28353  71.0012 180.8955 0005323 339.1001  20.9903 14.14598973126317
CZ-4B R/B               
1 28415U 04035C   26093.11924349  .00014703  00000+0  50920-3 0  9998
2 28415  97.3450 127.0706 0030229 240.0544 119.7694 15.29509963183646
CZ-2C R/B               
1 28480U 04046B   26093.30738960  .00000281  00000+0  11870-3 0  9992
2 28480  98.1977   6.7574 0140643  82.1436 279.5684 14.27002008112016
ARIANE 5 R/B            
1 28499U 04049H   26093.22176704  .00001498  00000+0  17121-3 0  9994
2 28499  98.2662 262.6036 0082817 271.6083  87.5646 14.85315541149439
CZ-2D R/B               
1 28738U 05024B   26093.12881725  .00072373  00000+0  80926-3 0  9992
2 28738  97.3566 109.2100 0001769 291.2562  68.8507 15.62509279143591
ALOS (DAICHI)           
1 28931U 06002A   26093.14611827  .00002358  00000+0  40239-3 0  9999
2 28931  98.1259  48.9863 0001115 114.0829 246.0494 14.69889995 77078
